[{"OBJECT_NAME":"DAMPE","OBJECT_ID":"2015-078A","EPOCH":"2026-03-09T23:55:00.527232","MEAN_MOTION":15.30502084,"ECCENTRICITY":0.00138005,"INCLINATION":97.4588,"RA_OF_ASC_NODE":73.9866,"ARG_OF_PERICENTER":70.6942,"MEAN_ANOMALY":289.579,"EPHEMERIS_TYPE":0,"CLASSIFICATION_TYPE":"U","NORAD_CAT_ID":41173,"ELEMENT_SET_NO":999,"REV_AT_EPOCH":56937,"BSTAR":9.1158173e-5,"MEAN_MOTION_DOT":2.617e-5,"MEAN_MOTION_DDOT":0},{"OBJECT_NAME":"STARLINK-35548","OBJECT_ID":"2025-243AC","EPOCH":"2026-03-09T18:06:26.286624","MEAN_MOTION":15.30193505,"ECCENTRICITY":0.00011366,"INCLINATION":53.1599,"RA_OF_ASC_NODE":244.9529,"ARG_OF_PERICENTER":65.1193,"MEAN_ANOMALY":294.9926,"EPHEMERIS_TYPE":0,"CLASSIFICATION_TYPE":"U","NORAD_CAT_ID":66203,"ELEMENT_SET_NO":999,"REV_AT_EPOCH":2066,"BSTAR":0.00080914293,"MEAN_MOTION_DOT":0.00023677,"MEAN_MOTION_DDOT":0}]
